0 COSMOS 2251 DEB
1 33827U 93036BU  13282.15787010  .00220802  00000-0  88855-2 0  6772
2 33827 073.9391 279.7099 0053699 062.3264 061.3405 15.22561570250713
0 COSMOS 2251 DEB
1 33827U 93036BU  13282.48217942  .00217634  00000-0  87267-2 0  6786
2 33827 073.9391 279.0233 0053621 061.5209 039.0313 15.22698508250768
0 COSMOS 2251 DEB
1 33827U 93036BU  13282.80283813  .00169029  00000-0  68020-2 0  6793
2 33827 073.9391 278.3445 0053513 060.7720 356.8285 15.22788725250819
0 COSMOS 2251 DEB
1 33827U 93036BU  13283.46668193  .00192698  00000-0  76903-2 0  6803
2 33827 073.9386 276.9383 0053217 059.5633 035.9356 15.22981060250910
0 COSMOS 2251 DEB
1 33827U 93036BU  13283.78878846  .00201295  00000-0  80074-2 0  6815
2 33827 073.9386 276.2558 0053127 059.0203 001.8120 15.23057448250966
0 COSMOS 2251 DEB
1 33827U 93036BU  13284.52555697  .00197451  00000-0  78088-2 0  6825
2 33827 073.9381 274.6948 0052868 057.6974 081.4491 15.23280629251073
0 COSMOS 2251 DEB
1 33827U 93036BU  13285.51014457  .00170679  00000-0  67139-2 0  6849
2 33827 073.9375 272.6076 0052547 055.9053 080.7840 15.23586834251223
0 COSMOS 2251 DEB
1 33827U 93036BU  13286.49514366  .00167345  00000-0  65289-2 0  6852
2 33827 073.9367 270.5189 0052258 054.1617 083.4054 15.23887800251372
0 COSMOS 2251 DEB
1 33827U 93036BU  13288.05719293  .00289032  00000-0  10938-1 0  6861
2 33827 073.9362 267.2032 0051271 051.5823 013.1869 15.24438563251611
0 COSMOS 2251 DEB
1 33827U 93036BU  13288.52590130  .00272747  00000-0  10279-1 0  6874
2 33827 073.9362 266.2077 0051029 050.8194 065.3477 15.24654906251685
0 COSMOS 2251 DEB
1 33827U 93036BU  13288.97432056  .00251340  00000-0  94443-2 0  6888
2 33827 073.9364 265.2550 0050643 050.0882 006.4811 15.24859286251753
0 COSMOS 2251 DEB
1 33827U 93036BU  13289.95889859  .00239469  00000-0  89112-2 0  6890
2 33827 073.9362 263.1614 0049945 048.2773 011.5747 15.25261732251906
0 COSMOS 2251 DEB
1 33827U 93036BU  13290.37021778  .00280874  00000-0  10348-1 0  6908
2 33827 073.9361 262.2859 0049381 047.8408 109.7461 15.25445913251964
0 COSMOS 2251 DEB
1 33827U 93036BU  13290.62538458  .00284009  00000-0  10425-1 0  6915
2 33827 073.9367 261.7449 0049269 047.5893 070.7284 15.25559573252003
0 COSMOS 2251 DEB
1 33827U 93036BU  13290.94313455  .00236815  00000-0  86989-2 0  6920
2 33827 073.9366 261.0681 0049170 047.0969 015.6454 15.25735437252050
0 COSMOS 2251 DEB
1 33827U 93036BU  13291.47699066  .00250749  00000-0  91387-2 0  6935
2 33827 073.9367 259.9316 0048930 046.1374 067.8525 15.25947156252135
0 COSMOS 2251 DEB
1 33827U 93036BU  13293.04249620  .00241912  00000-0  86458-2 0  6943
2 33827 073.9369 256.5991 0047544 043.8364 028.5651 15.26687554252376
0 COSMOS 2251 DEB
1 33827U 93036BU  13293.50917881  .00283242  00000-0  10007-1 0  6954
2 33827 073.9366 255.6038 0047115 043.5012 072.9252 15.26913504252441
0 COSMOS 2251 DEB
1 33827U 93036BU  13294.02461384  .00270748  00000-0  95175-2 0  6962
2 33827 073.9365 254.5050 0046736 042.6650 026.0429 15.27146114252529
0 COSMOS 2251 DEB
1 33827U 93036BU  13295.00233957  .00274104  00000-0  95062-2 0  6970
2 33827 073.9360 252.4198 0045871 041.2322 001.2967 15.27610471252674
0 COSMOS 2251 DEB
1 33827U 93036BU  13295.41229395  .00327555  00000-0  11217-1 0  6985
2 33827 073.9352 251.5446 0045352 040.9839 095.2479 15.27826406252739
0 COSMOS 2251 DEB
1 33827U 93036BU  13295.98842817  .00309093  00000-0  10525-1 0  6996
2 33827 073.9357 250.3153 0044877 040.1745 023.8179 15.28106136252821
